{
  "type": "FeatureCollection",
  "name": "khor_fakkan_adjacent_research_water",
  "features": [
    {
      "type": "Feature",
      "properties": {
        "region_id": "khor_fakkan_fujairah_adjacent_secondary_water",
        "area_km2": 244.141701,
        "geometry_semantics": "research analysis water; not an official port, anchorage, route or jurisdictional boundary",
        "source_place_reference": "IMF PortWatch port561 Khor Fakkan point",
        "geometry_method": "oriented analytical polygon clipped against public land context",
        "crs": "EPSG:4326"
      },
      "geometry": {
        "coordinates": [
          [
            [
              56.51229482711281,
              25.363875778070515
            ],
            [
              56.51087538538417,
              25.355798170231424
            ],
            [
              56.50921693777442,
              25.34784562972816
            ],
            [
              56.50732662624888,
              25.340052203051677
            ],
            [
              56.5052125808554,
              25.33245125462706
            ],
            [
              56.50288388430922,
              25.32507532408292
            ],
            [
              56.50035053259117,
              25.317955987062245
            ],
            [
              56.497623391736035,
              25.311123720168364
            ],
            [
              56.49471415100324,
              25.30460777062141
            ],
            [
              56.4916352726351,
              25.29843603118088
            ],
            [
              56.48839993842074,
              25.292634920866927
            ],
            [
              56.485021993295675,
              25.28722927198864
            ],
            [
              56.48151588621741,
              25.28224222396008
            ],
            [
              56.479371168082665,
              25.279547695403952
            ],
            [
              56.4748224411381,
              25.283058551754397
            ],
            [
              56.46710799091441,
              25.287834769735213
            ],
            [
              56.459228093026695,
              25.291572083631827
            ],
            [
              56.45125882737999,
              25.294234482328747
            ],
            [
              56.44327715128883,
              25.295796318421324
            ],
            [
              56.435360150262014,
              25.29624255549016
            ],
            [
              56.4314498423183,
              25.296045564671758
            ],
            [
              56.42377282331614,
              25.294813751760326
            ],
            [
              56.41634884352543,
              25.292475864766985
            ],
            [
              56.40924958237428,
              25.289054461205414
            ],
            [
              56.40888199494262,
              25.288809334852868
            ],
            [
              56.406758045264596,
              25.29344943699193
            ],
            [
              56.404462940896785,
              25.299305958645142
            ],
            [
              56.40238387461061,
              25.305529436920317
            ],
            [
              56.40052976484496,
              25.31209323037044
            ],
            [
              56.39890857316101,
              25.31896923960367
            ],
            [
              56.39752726977918,
              25.326128027476205
            ],
            [
              56.39639180325804,
              25.33353894502693
            ],
            [
              56.39550707445244,
              25.341170262616867
            ],
            [
              56.39487691487215,
              25.348989305713364
            ],
            [
              56.39450406954452,
              25.356962594739297
            ],
            [
              56.39439018446707,
              25.36505598838957
            ],
            [
              56.394535798716866,
              25.37323482980201
            ],
            [
              56.39494034126491,
              25.381464094957334
            ],
            [
              56.39560213252416,
              25.389708542672736
            ],
            [
              56.39651839063963,
              25.397932865546785
            ],
            [
              56.397685242509375,
              25.40610184120838
            ],
            [
              56.399097739504164,
              25.414180483221436
            ],
            [
              56.40074987783356,
              25.42213419099767
            ],
            [
              56.402634623485504,
              25.429928898073925
            ],
            [
              56.40474394164576,
              25.437531218117332
            ],
            [
              56.40706883048352,
              25.444908588030668
            ],
            [
              56.4095993591694,
              25.45202940754309
            ],
            [
              56.41232470997214,
              25.45886317468555
            ],
            [
              56.41523322426145,
              25.465380616568297
            ],
            [
              56.418312452225614,
              25.47155381489762
            ],
            [
              56.42154920609482,
              25.47735632569135
            ],
            [
              56.424929616643844,
              25.48276329267773
            ],
            [
              56.42843919273197,
              25.487751553889396
            ],
            [
              56.43206288362261,
              25.492299740992976
            ],
            [
              56.435785143811344,
              25.49638837092672
            ],
            [
              56.439590000078375,
              25.499999929451302
            ],
            [
              56.443461120469955,
              25.50311894625383
            ],
            [
              56.447381884903386,
              25.50573206128176
            ],
            [
              56.451335457081804,
              25.50782808202088
            ],
            [
              56.4553048573978,
              25.509398031471264
            ],
            [
              56.459273036499766,
              25.51043518661452
            ],
            [
              56.4632229491912,
              25.510935107207423
            ],
            [
              56.46713762833081,
              25.510895654778366
            ],
            [
              56.47100025840141,
              25.510317001745737
            ],
            [
              56.47479424841659,
              25.509201630619682
            ],
            [
              56.47850330383737,
              25.507554323291846
            ],
            [
              56.48211149717579,
              25.505382140460284
            ],
            [
              56.48560333696865,
              25.502694391279363
            ],
            [
              56.488963834812836,
              25.499502593366575
            ],
            [
              56.492178570162956,
              25.495820423339936
            ],
            [
              56.49523375260337,
              25.491663658100048
            ],
            [
              56.49811628131876,
              25.487050107111067
            ],
            [
              56.50081380150171,
              25.48199953597329
            ],
            [
              56.503314757450255,
              25.476533581617474
            ],
            [
              56.505608442125045,
              25.470675659486947
            ],
            [
              56.50768504295258,
              25.464450863107828
            ],
            [
              56.50953568367951,
              25.45788585648013
            ],
            [
              56.51115246210166,
              25.45100875975337
            ],
            [
              56.51252848351124,
              25.443849028678503
            ],
            [
              56.513657889726,
              25.436437328354906
            ],
            [
              56.514535883584664,
              25.42880540181484
            ],
            [
              56.51515874881405,
              25.420985934010083
            ],
            [
              56.5155238651947,
              25.41301241178448
            ],
            [
              56.51562971897286,
              25.404918980433123
            ],
            [
              56.515475908488405,
              25.39674029746319
            ],
            [
              56.51506314500919,
              25.388511384182937
            ],
            [
              56.5143932487837,
              25.380267475754472
            ],
            [
              56.51346914034414,
              25.37204387035198
            ],
            [
              56.51229482711281,
              25.363875778070515
            ]
          ]
        ],
        "type": "Polygon"
      }
    }
  ]
}
